[
  {
    "OBJECT_NAME": "STARLINK-32125",
    "OBJECT_ID": "24131F",
    "EPOCH": "2025-11-11T05:04:09.413184",
    "MEAN_MOTION": 15.30198205,
    "ECCENTRICITY": 0.0001443,
    "INCLINATION": 53.1605,
    "RA_OF_ASC_NODE": 242.4244,
    "ARG_OF_PERICENTER": 73.9163,
    "MEAN_ANOMALY": 286.1997,
    "EPHEMERIS_TYPE": 0,
    "CLASSIFICATION_TYPE": "U",
    "NORAD_CAT_ID": 60260,
    "ELEMENT_SET_NO": 999,
    "REV_AT_EPOCH": 7358,
    "BSTAR": 7.6778e-05,
    "MEAN_MOTION_DOT": 1.915e-05,
    "MEAN_MOTION_DDOT": 0.0,
    "TLE_LINE1": "1 60260U 24131F   25315.21122006  .00001915  00000+0  76778-4 0  9999",
    "TLE_LINE2": "2 60260  53.1605 242.4244 0001443  73.9163 286.1997 15.30198205 73588",
    "COMMENT": "Grouped by shell and plane from TLE"
  },
  {
    "OBJECT_NAME": "STARLINK-32160",
    "OBJECT_ID": "24131G",
    "EPOCH": "2025-11-11T01:42:32.632128",
    "MEAN_MOTION": 15.30195648,
    "ECCENTRICITY": 0.0001306,
    "INCLINATION": 53.1609,
    "RA_OF_ASC_NODE": 243.6811,
    "ARG_OF_PERICENTER": 83.0333,
    "MEAN_ANOMALY": 277.0817,
    "EPHEMERIS_TYPE": 0,
    "CLASSIFICATION_TYPE": "U",
    "NORAD_CAT_ID": 60261,
    "ELEMENT_SET_NO": 999,
    "REV_AT_EPOCH": 7360,
    "BSTAR": 8.770200000000001e-05,
    "MEAN_MOTION_DOT": 2.239e-05,
    "MEAN_MOTION_DDOT": 0.0,
    "TLE_LINE1": "1 60261U 24131G   25315.07121102  .00002239  00000+0  87702-4 0  9999",
    "TLE_LINE2": "2 60261  53.1609 243.6811 0001306  83.0333 277.0817 15.30195648 73606",
    "COMMENT": "Grouped by shell and plane from TLE"
  },
  {
    "OBJECT_NAME": "STARLINK-32163",
    "OBJECT_ID": "24131H",
    "EPOCH": "2025-11-11T04:03:32.659200",
    "MEAN_MOTION": 15.301949,
    "ECCENTRICITY": 0.0001268,
    "INCLINATION": 53.1611,
    "RA_OF_ASC_NODE": 242.8719,
    "ARG_OF_PERICENTER": 99.4634,
    "MEAN_ANOMALY": 260.651,
    "EPHEMERIS_TYPE": 0,
    "CLASSIFICATION_TYPE": "U",
    "NORAD_CAT_ID": 60262,
    "ELEMENT_SET_NO": 999,
    "REV_AT_EPOCH": 7357,
    "BSTAR": 5.3798e-05,
    "MEAN_MOTION_DOT": 1.234e-05,
    "MEAN_MOTION_DDOT": 0.0,
    "TLE_LINE1": "1 60262U 24131H   25315.16912800  .00001234  00000+0  53798-4 0  9995",
    "TLE_LINE2": "2 60262  53.1611 242.8719 0001268  99.4634 260.6510 15.30194900 73574",
    "COMMENT": "Grouped by shell and plane from TLE"
  },
  {
    "OBJECT_NAME": "STARLINK-32148",
    "OBJECT_ID": "24131J",
    "EPOCH": "2025-11-11T05:51:15.891552",
    "MEAN_MOTION": 15.30186238,
    "ECCENTRICITY": 0.0001308,
    "INCLINATION": 53.1609,
    "RA_OF_ASC_NODE": 242.6258,
    "ARG_OF_PERICENTER": 79.0978,
    "MEAN_ANOMALY": 281.017,
    "EPHEMERIS_TYPE": 0,
    "CLASSIFICATION_TYPE": "U",
    "NORAD_CAT_ID": 60263,
    "ELEMENT_SET_NO": 999,
    "REV_AT_EPOCH": 7363,
    "BSTAR": 0.00013958000000000002,
    "MEAN_MOTION_DOT": 3.775e-05,
    "MEAN_MOTION_DDOT": 0.0,
    "TLE_LINE1": "1 60263U 24131J   25315.24393393  .00003775  00000+0  13958-3 0  9990",
    "TLE_LINE2": "2 60263  53.1609 242.6258 0001308  79.0978 281.0170 15.30186238 73639",
    "COMMENT": "Grouped by shell and plane from TLE"
  },
  {
    "OBJECT_NAME": "STARLINK-32121",
    "OBJECT_ID": "24131K",
    "EPOCH": "2025-11-11T04:21:47.789568",
    "MEAN_MOTION": 15.30170016,
    "ECCENTRICITY": 0.0001199,
    "INCLINATION": 53.1612,
    "RA_OF_ASC_NODE": 242.9559,
    "ARG_OF_PERICENTER": 98.6327,
    "MEAN_ANOMALY": 261.4809,
    "EPHEMERIS_TYPE": 0,
    "CLASSIFICATION_TYPE": "U",
    "NORAD_CAT_ID": 60264,
    "ELEMENT_SET_NO": 999,
    "REV_AT_EPOCH": 7362,
    "BSTAR": 0.0,
    "MEAN_MOTION_DOT": -9.23e-06,
    "MEAN_MOTION_DDOT": 0.0,
    "TLE_LINE1": "1 60264U 24131K   25315.18180312 -.00000923  00000+0 -19053-4 0  9996",
    "TLE_LINE2": "2 60264  53.1612 242.9559 0001199  98.6327 261.4809 15.30170016 73621",
    "COMMENT": "Grouped by shell and plane from TLE"
  },
  {
    "OBJECT_NAME": "STARLINK-32120",
    "OBJECT_ID": "24131L",
    "EPOCH": "2025-11-11T05:02:47.934528",
    "MEAN_MOTION": 15.30202832,
    "ECCENTRICITY": 0.0001242,
    "INCLINATION": 53.1599,
    "RA_OF_ASC_NODE": 243.1242,
    "ARG_OF_PERICENTER": 70.2343,
    "MEAN_ANOMALY": 289.8792,
    "EPHEMERIS_TYPE": 0,
    "CLASSIFICATION_TYPE": "U",
    "NORAD_CAT_ID": 60265,
    "ELEMENT_SET_NO": 999,
    "REV_AT_EPOCH": 7362,
    "BSTAR": 4.5057000000000006e-05,
    "MEAN_MOTION_DOT": 9.76e-06,
    "MEAN_MOTION_DDOT": 0.0,
    "TLE_LINE1": "1 60265U 24131L   25315.21027702  .00000976  00000+0  45057-4 0  9993",
    "TLE_LINE2": "2 60265  53.1599 243.1242 0001242  70.2343 289.8792 15.30202832 73628",
    "COMMENT": "Grouped by shell and plane from TLE"
  },
  {
    "OBJECT_NAME": "STARLINK-32205",
    "OBJECT_ID": "24131M",
    "EPOCH": "2025-11-11T04:40:00.459264",
    "MEAN_MOTION": 15.30194577,
    "ECCENTRICITY": 0.000126,
    "INCLINATION": 53.1614,
    "RA_OF_ASC_NODE": 243.0395,
    "ARG_OF_PERICENTER": 98.7844,
    "MEAN_ANOMALY": 261.33,
    "EPHEMERIS_TYPE": 0,
    "CLASSIFICATION_TYPE": "U",
    "NORAD_CAT_ID": 60266,
    "ELEMENT_SET_NO": 999,
    "REV_AT_EPOCH": 7357,
    "BSTAR": 8.1487e-05,
    "MEAN_MOTION_DOT": 2.055e-05,
    "MEAN_MOTION_DDOT": 0.0,
    "TLE_LINE1": "1 60266U 24131M   25315.19444976  .00002055  00000+0  81487-4 0  9994",
    "TLE_LINE2": "2 60266  53.1614 243.0395 0001260  98.7844 261.3300 15.30194577 73576",
    "COMMENT": "Grouped by shell and plane from TLE"
  },
  {
    "OBJECT_NAME": "STARLINK-32158",
    "OBJECT_ID": "24131N",
    "EPOCH": "2025-11-11T03:52:53.967072",
    "MEAN_MOTION": 15.30196044,
    "ECCENTRICITY": 0.0001142,
    "INCLINATION": 53.1615,
    "RA_OF_ASC_NODE": 242.8259,
    "ARG_OF_PERICENTER": 102.8554,
    "MEAN_ANOMALY": 257.2574,
    "EPHEMERIS_TYPE": 0,
    "CLASSIFICATION_TYPE": "U",
    "NORAD_CAT_ID": 60267,
    "ELEMENT_SET_NO": 999,
    "REV_AT_EPOCH": 7347,
    "BSTAR": 7.0827e-05,
    "MEAN_MOTION_DOT": 1.739e-05,
    "MEAN_MOTION_DDOT": 0.0,
    "TLE_LINE1": "1 60267U 24131N   25315.16173573  .00001739  00000+0  70827-4 0  9998",
    "TLE_LINE2": "2 60267  53.1615 242.8259 0001142 102.8554 257.2574 15.30196044 73475",
    "COMMENT": "Grouped by shell and plane from TLE"
  },
  {
    "OBJECT_NAME": "STARLINK-32167",
    "OBJECT_ID": "24131P",
    "EPOCH": "2025-11-11T05:05:40.222176",
    "MEAN_MOTION": 15.30220201,
    "ECCENTRICITY": 9.92e-05,
    "INCLINATION": 53.1601,
    "RA_OF_ASC_NODE": 242.4438,
    "ARG_OF_PERICENTER": 77.3335,
    "MEAN_ANOMALY": 282.7777,
    "EPHEMERIS_TYPE": 0,
    "CLASSIFICATION_TYPE": "U",
    "NORAD_CAT_ID": 60268,
    "ELEMENT_SET_NO": 999,
    "REV_AT_EPOCH": 7358,
    "BSTAR": 1.8795000000000002e-05,
    "MEAN_MOTION_DOT": 1.98e-06,
    "MEAN_MOTION_DDOT": 0.0,
    "TLE_LINE1": "1 60268U 24131P   25315.21227109  .00000198  00000+0  18795-4 0  9994",
    "TLE_LINE2": "2 60268  53.1601 242.4438 0000992  77.3335 282.7777 15.30220201 73584",
    "COMMENT": "Grouped by shell and plane from TLE"
  },
  {
    "OBJECT_NAME": "STARLINK-32144",
    "OBJECT_ID": "24131Q",
    "EPOCH": "2025-11-11T05:46:42.469248",
    "MEAN_MOTION": 15.30208837,
    "ECCENTRICITY": 0.0001112,
    "INCLINATION": 53.1616,
    "RA_OF_ASC_NODE": 242.6064,
    "ARG_OF_PERICENTER": 99.17,
    "MEAN_ANOMALY": 260.9427,
    "EPHEMERIS_TYPE": 0,
    "CLASSIFICATION_TYPE": "U",
    "NORAD_CAT_ID": 60269,
    "ELEMENT_SET_NO": 999,
    "REV_AT_EPOCH": 7363,
    "BSTAR": 0.0,
    "MEAN_MOTION_DOT": -8.35e-06,
    "MEAN_MOTION_DDOT": 0.0,
    "TLE_LINE1": "1 60269U 24131Q   25315.24076932 -.00000835  00000+0 -16059-4 0  9995",
    "TLE_LINE2": "2 60269  53.1616 242.6064 0001112  99.1700 260.9427 15.30208837 73638",
    "COMMENT": "Grouped by shell and plane from TLE"
  },
  {
    "OBJECT_NAME": "STARLINK-32211",
    "OBJECT_ID": "24131R",
    "EPOCH": "2025-11-11T01:45:33.280704",
    "MEAN_MOTION": 15.30252868,
    "ECCENTRICITY": 0.0001079,
    "INCLINATION": 53.1606,
    "RA_OF_ASC_NODE": 243.709,
    "ARG_OF_PERICENTER": 86.1442,
    "MEAN_ANOMALY": 273.9682,
    "EPHEMERIS_TYPE": 0,
    "CLASSIFICATION_TYPE": "U",
    "NORAD_CAT_ID": 60270,
    "ELEMENT_SET_NO": 999,
    "REV_AT_EPOCH": 7355,
    "BSTAR": 0.0,
    "MEAN_MOTION_DOT": -9.61e-05,
    "MEAN_MOTION_DDOT": 0.0,
    "TLE_LINE1": "1 60270U 24131R   25315.07330186 -.00009610  00000+0 -31224-3 0  9992",
    "TLE_LINE2": "2 60270  53.1606 243.7090 0001079  86.1442 273.9682 15.30252868 73552",
    "COMMENT": "Grouped by shell and plane from TLE"
  },
  {
    "OBJECT_NAME": "STARLINK-32164",
    "OBJECT_ID": "24131S",
    "EPOCH": "2025-11-11T04:59:45.622752",
    "MEAN_MOTION": 15.30202157,
    "ECCENTRICITY": 0.0001452,
    "INCLINATION": 53.1607,
    "RA_OF_ASC_NODE": 243.1151,
    "ARG_OF_PERICENTER": 73.5662,
    "MEAN_ANOMALY": 286.5498,
    "EPHEMERIS_TYPE": 0,
    "CLASSIFICATION_TYPE": "U",
    "NORAD_CAT_ID": 60271,
    "ELEMENT_SET_NO": 999,
    "REV_AT_EPOCH": 7347,
    "BSTAR": 8.5331e-05,
    "MEAN_MOTION_DOT": 2.169e-05,
    "MEAN_MOTION_DDOT": 0.0,
    "TLE_LINE1": "1 60271U 24131S   25315.20816693  .00002169  00000+0  85331-4 0  9999",
    "TLE_LINE2": "2 60271  53.1607 243.1151 0001452  73.5662 286.5498 15.30202157 73477",
    "COMMENT": "Grouped by shell and plane from TLE"
  },
  {
    "OBJECT_NAME": "STARLINK-32128",
    "OBJECT_ID": "24131T",
    "EPOCH": "2025-11-11T02:14:17.475648",
    "MEAN_MOTION": 15.30198614,
    "ECCENTRICITY": 0.0001357,
    "INCLINATION": 53.1616,
    "RA_OF_ASC_NODE": 243.111,
    "ARG_OF_PERICENTER": 96.0979,
    "MEAN_ANOMALY": 264.0177,
    "EPHEMERIS_TYPE": 0,
    "CLASSIFICATION_TYPE": "U",
    "NORAD_CAT_ID": 60272,
    "ELEMENT_SET_NO": 999,
    "REV_AT_EPOCH": 7356,
    "BSTAR": 4.6786e-05,
    "MEAN_MOTION_DOT": 1.027e-05,
    "MEAN_MOTION_DDOT": 0.0,
    "TLE_LINE1": "1 60272U 24131T   25315.09325782  .00001027  00000+0  46786-4 0  9994",
    "TLE_LINE2": "2 60272  53.1616 243.1110 0001357  96.0979 264.0177 15.30198614 73565",
    "COMMENT": "Grouped by shell and plane from TLE"
  }
]